PRAETORIAN SDA_617      
1 65580U 25203R   26062.61076803  .00000063  00000+0  46535-4 0  9998
2 65580  81.3012 108.5138 0008688 115.8767 244.3285 13.83190545 24094
PRAETORIAN SDA_618      
1 65581U 25203S   26062.63120072  .00000317  00000+0  27085-3 0  9999
2 65581  81.2997 108.3500 0010885 117.2953 242.9313 13.84761648 24109
PRAETORIAN SDA_619      
1 65582U 25203T   26062.60345349  .00000259  00000+0  22227-3 0  9991
2 65582  81.3023 108.5121 0009369 114.3403 245.8733 13.83928396 24725
PRAETORIAN SDA_620      
1 65583U 25203U   26062.61157324  .00000247  00000+0  21221-3 0  9997
2 65583  81.3010 108.4978 0008931 114.5395 245.6693 13.83703190 24093
PRAETORIAN SDA_621      
1 65584U 25203V   26062.59600352  .00000069  00000+0  51846-4 0  9998
2 65584  81.2996 108.4631 0008650 110.6881 249.5204 13.83786442 24099
PRAETORIAN SDA_601      
1 65585U 25203W   26062.60638241  .00000101  00000+0  81341-4 0  9999
2 65585  81.3013 108.6635 0006435 122.8692 237.3084 13.83484537 24081
