[{"OBJECT_NAME":"PRAETORIAN SDA_617","OBJECT_ID":"2025-203R","EPOCH":"2026-03-03T14:39:30.357792","MEAN_MOTION":13.83190545,"ECCENTRICITY":0.0008688,"INCLINATION":81.3012,"RA_OF_ASC_NODE":108.5138,"ARG_OF_PERICENTER":115.8767,"MEAN_ANOMALY":244.3285,"EPHEMERIS_TYPE":0,"CLASSIFICATION_TYPE":"U","NORAD_CAT_ID":65580,"ELEMENT_SET_NO":999,"REV_AT_EPOCH":2409,"BSTAR":4.6535e-5,"MEAN_MOTION_DOT":6.3e-7,"MEAN_MOTION_DDOT":0},{"OBJECT_NAME":"PRAETORIAN SDA_618","OBJECT_ID":"2025-203S","EPOCH":"2026-03-03T15:08:55.742208","MEAN_MOTION":13.84761648,"ECCENTRICITY":0.0010885,"INCLINATION":81.2997,"RA_OF_ASC_NODE":108.35,"ARG_OF_PERICENTER":117.2953,"MEAN_ANOMALY":242.9313,"EPHEMERIS_TYPE":0,"CLASSIFICATION_TYPE":"U","NORAD_CAT_ID":65581,"ELEMENT_SET_NO":999,"REV_AT_EPOCH":2410,"BSTAR":0.00027085,"MEAN_MOTION_DOT":3.17e-6,"MEAN_MOTION_DDOT":0},{"OBJECT_NAME":"PRAETORIAN SDA_619","OBJECT_ID":"2025-203T","EPOCH":"2026-03-03T14:28:58.381536","MEAN_MOTION":13.83928396,"ECCENTRICITY":0.0009369,"INCLINATION":81.3023,"RA_OF_ASC_NODE":108.5121,"ARG_OF_PERICENTER":114.3403,"MEAN_ANOMALY":245.8733,"EPHEMERIS_TYPE":0,"CLASSIFICATION_TYPE":"U","NORAD_CAT_ID":65582,"ELEMENT_SET_NO":999,"REV_AT_EPOCH":2472,"BSTAR":0.00022227,"MEAN_MOTION_DOT":2.59e-6,"MEAN_MOTION_DDOT":0},{"OBJECT_NAME":"PRAETORIAN SDA_620","OBJECT_ID":"2025-203U","EPOCH":"2026-03-03T14:40:39.927936","MEAN_MOTION":13.8370319,"ECCENTRICITY":0.0008931,"INCLINATION":81.301,"RA_OF_ASC_NODE":108.4978,"ARG_OF_PERICENTER":114.5395,"MEAN_ANOMALY":245.6693,"EPHEMERIS_TYPE":0,"CLASSIFICATION_TYPE":"U","NORAD_CAT_ID":65583,"ELEMENT_SET_NO":999,"REV_AT_EPOCH":2409,"BSTAR":0.00021221,"MEAN_MOTION_DOT":2.47e-6,"MEAN_MOTION_DDOT":0},{"OBJECT_NAME":"PRAETORIAN SDA_621","OBJECT_ID":"2025-203V","EPOCH":"2026-03-03T14:18:14.704128","MEAN_MOTION":13.83786442,"ECCENTRICITY":0.000865,"INCLINATION":81.2996,"RA_OF_ASC_NODE":108.4631,"ARG_OF_PERICENTER":110.6881,"MEAN_ANOMALY":249.5204,"EPHEMERIS_TYPE":0,"CLASSIFICATION_TYPE":"U","NORAD_CAT_ID":65584,"ELEMENT_SET_NO":999,"REV_AT_EPOCH":2409,"BSTAR":5.1846e-5,"MEAN_MOTION_DOT":6.9e-7,"MEAN_MOTION_DDOT":0},{"OBJECT_NAME":"PRAETORIAN SDA_601","OBJECT_ID":"2025-203W","EPOCH":"2026-03-03T14:33:11.440224","MEAN_MOTION":13.83484537,"ECCENTRICITY":0.0006435,"INCLINATION":81.3013,"RA_OF_ASC_NODE":108.6635,"ARG_OF_PERICENTER":122.8692,"MEAN_ANOMALY":237.3084,"EPHEMERIS_TYPE":0,"CLASSIFICATION_TYPE":"U","NORAD_CAT_ID":65585,"ELEMENT_SET_NO":999,"REV_AT_EPOCH":2408,"BSTAR":8.1341e-5,"MEAN_MOTION_DOT":1.01e-6,"MEAN_MOTION_DDOT":0}]
